<?xml version="1.0" encoding="UTF-8"?>
<ndm xmlns:xsi="http://www.w3.org/2001/XMLSchema-instance" xsi:noNamespaceSchemaLocation="https://sanaregistry.org/r/ndmxml_unqualified/ndmxml-2.0.0-master-2.0.xsd">
<omm id="CCSDS_OMM_VERS" version="2.0">
<header><CREATION_DATE/><ORIGINATOR/></header><body><segment><metadata><OBJECT_NAME>ORBCOMM-X [-]</OBJECT_NAME><OBJECT_ID>1991-050C</OBJECT_ID><CENTER_NAME>EARTH</CENTER_NAME><REF_FRAME>TEME</REF_FRAME><TIME_SYSTEM>UTC</TIME_SYSTEM><MEAN_ELEMENT_THEORY>SGP4</MEAN_ELEMENT_THEORY></metadata><data><meanElements><EPOCH>2024-02-18T10:05:58.156800</EPOCH><MEAN_MOTION>14.42371135</MEAN_MOTION><ECCENTRICITY>.0003333</ECCENTRICITY><INCLINATION>98.4043</INCLINATION><RA_OF_ASC_NODE>118.5197</RA_OF_ASC_NODE><ARG_OF_PERICENTER>192.9655</ARG_OF_PERICENTER><MEAN_ANOMALY>167.1449</MEAN_ANOMALY></meanElements><tleParameters><EPHEMERIS_TYPE>0</EPHEMERIS_TYPE><CLASSIFICATION_TYPE>U</CLASSIFICATION_TYPE><NORAD_CAT_ID>21576</NORAD_CAT_ID><ELEMENT_SET_NO>999</ELEMENT_SET_NO><REV_AT_EPOCH>71243</REV_AT_EPOCH><BSTAR>.22073E-3</BSTAR><MEAN_MOTION_DOT>.686E-5</MEAN_MOTION_DOT><MEAN_MOTION_DDOT>0</MEAN_MOTION_DDOT></tleParameters></data></segment></body></omm>
<omm id="CCSDS_OMM_VERS" version="2.0">
<header><CREATION_DATE/><ORIGINATOR/></header><body><segment><metadata><OBJECT_NAME>ORBCOMM FM01 [-]</OBJECT_NAME><OBJECT_ID>1995-017A</OBJECT_ID><CENTER_NAME>EARTH</CENTER_NAME><REF_FRAME>TEME</REF_FRAME><TIME_SYSTEM>UTC</TIME_SYSTEM><MEAN_ELEMENT_THEORY>SGP4</MEAN_ELEMENT_THEORY></metadata><data><meanElements><EPOCH>2024-02-17T19:09:20.169504</EPOCH><MEAN_MOTION>14.78557322</MEAN_MOTION><ECCENTRICITY>.0007247</ECCENTRICITY><INCLINATION>69.9675</INCLINATION><RA_OF_ASC_NODE>193.1356</RA_OF_ASC_NODE><ARG_OF_PERICENTER>314.8704</ARG_OF_PERICENTER><MEAN_ANOMALY>45.1855</MEAN_ANOMALY></meanElements><tleParameters><EPHEMERIS_TYPE>0</EPHEMERIS_TYPE><CLASSIFICATION_TYPE>U</CLASSIFICATION_TYPE><NORAD_CAT_ID>23545</NORAD_CAT_ID><ELEMENT_SET_NO>999</ELEMENT_SET_NO><REV_AT_EPOCH>54049</REV_AT_EPOCH><BSTAR>.1316E-2</BSTAR><MEAN_MOTION_DOT>.9575E-4</MEAN_MOTION_DOT><MEAN_MOTION_DDOT>0</MEAN_MOTION_DDOT></tleParameters></data></segment></body></omm>
<omm id="CCSDS_OMM_VERS" version="2.0">
<header><CREATION_DATE/><ORIGINATOR/></header><body><segment><metadata><OBJECT_NAME>ORBCOMM FM02 [-]</OBJECT_NAME><OBJECT_ID>1995-017B</OBJECT_ID><CENTER_NAME>EARTH</CENTER_NAME><REF_FRAME>TEME</REF_FRAME><TIME_SYSTEM>UTC</TIME_SYSTEM><MEAN_ELEMENT_THEORY>SGP4</MEAN_ELEMENT_THEORY></metadata><data><meanElements><EPOCH>2024-02-17T20:54:54.584640</EPOCH><MEAN_MOTION>14.78129256</MEAN_MOTION><ECCENTRICITY>.0009087</ECCENTRICITY><INCLINATION>69.9689</INCLINATION><RA_OF_ASC_NODE>212.2286</RA_OF_ASC_NODE><ARG_OF_PERICENTER>313.2181</ARG_OF_PERICENTER><MEAN_ANOMALY>46.8207</MEAN_ANOMALY></meanElements><tleParameters><EPHEMERIS_TYPE>0</EPHEMERIS_TYPE><CLASSIFICATION_TYPE>U</CLASSIFICATION_TYPE><NORAD_CAT_ID>23546</NORAD_CAT_ID><ELEMENT_SET_NO>999</ELEMENT_SET_NO><REV_AT_EPOCH>54015</REV_AT_EPOCH><BSTAR>.12033E-2</BSTAR><MEAN_MOTION_DOT>.8661E-4</MEAN_MOTION_DOT><MEAN_MOTION_DDOT>0</MEAN_MOTION_DDOT></tleParameters></data></segment></body></omm>
<omm id="CCSDS_OMM_VERS" version="2.0">
<header><CREATION_DATE/><ORIGINATOR/></header><body><segment><metadata><OBJECT_NAME>ORBCOMM FM08 [-]</OBJECT_NAME><OBJECT_ID>1997-084A</OBJECT_ID><CENTER_NAME>EARTH</CENTER_NAME><REF_FRAME>TEME</REF_FRAME><TIME_SYSTEM>UTC</TIME_SYSTEM><MEAN_ELEMENT_THEORY>SGP4</MEAN_ELEMENT_THEORY></metadata><data><meanElements><EPOCH>2024-02-17T14:53:52.996128</EPOCH><MEAN_MOTION>14.42023945</MEAN_MOTION><ECCENTRICITY>.0007232</ECCENTRICITY><INCLINATION>45.0131</INCLINATION><RA_OF_ASC_NODE>171.7239</RA_OF_ASC_NODE><ARG_OF_PERICENTER>305.1070</ARG_OF_PERICENTER><MEAN_ANOMALY>54.9102</MEAN_ANOMALY></meanElements><tleParameters><EPHEMERIS_TYPE>0</EPHEMERIS_TYPE><CLASSIFICATION_TYPE>U</CLASSIFICATION_TYPE><NORAD_CAT_ID>25112</NORAD_CAT_ID><ELEMENT_SET_NO>999</ELEMENT_SET_NO><REV_AT_EPOCH>37136</REV_AT_EPOCH><BSTAR>.96189E-3</BSTAR><MEAN_MOTION_DOT>.3045E-4</MEAN_MOTION_DOT><MEAN_MOTION_DDOT>0</MEAN_MOTION_DDOT></tleParameters></data></segment></body></omm>
<omm id="CCSDS_OMM_VERS" version="2.0">
<header><CREATION_DATE/><ORIGINATOR/></header><body><segment><metadata><OBJECT_NAME>ORBCOMM FM10 [-]</OBJECT_NAME><OBJECT_ID>1997-084B</OBJECT_ID><CENTER_NAME>EARTH</CENTER_NAME><REF_FRAME>TEME</REF_FRAME><TIME_SYSTEM>UTC</TIME_SYSTEM><MEAN_ELEMENT_THEORY>SGP4</MEAN_ELEMENT_THEORY></metadata><data><meanElements><EPOCH>2024-02-17T14:57:15.081408</EPOCH><MEAN_MOTION>14.41950883</MEAN_MOTION><ECCENTRICITY>.0005739</ECCENTRICITY><INCLINATION>45.0146</INCLINATION><RA_OF_ASC_NODE>173.5082</RA_OF_ASC_NODE><ARG_OF_PERICENTER>273.2569</ARG_OF_PERICENTER><MEAN_ANOMALY>86.7624</MEAN_ANOMALY></meanElements><tleParameters><EPHEMERIS_TYPE>0</EPHEMERIS_TYPE><CLASSIFICATION_TYPE>U</CLASSIFICATION_TYPE><NORAD_CAT_ID>25113</NORAD_CAT_ID><ELEMENT_SET_NO>999</ELEMENT_SET_NO><REV_AT_EPOCH>37135</REV_AT_EPOCH><BSTAR>.98221E-3</BSTAR><MEAN_MOTION_DOT>.3108E-4</MEAN_MOTION_DOT><MEAN_MOTION_DDOT>0</MEAN_MOTION_DDOT></tleParameters></data></segment></body></omm>
<omm id="CCSDS_OMM_VERS" version="2.0">
<header><CREATION_DATE/><ORIGINATOR/></header><body><segment><metadata><OBJECT_NAME>ORBCOMM FM11 [+]</OBJECT_NAME><OBJECT_ID>1997-084C</OBJECT_ID><CENTER_NAME>EARTH</CENTER_NAME><REF_FRAME>TEME</REF_FRAME><TIME_SYSTEM>UTC</TIME_SYSTEM><MEAN_ELEMENT_THEORY>SGP4</MEAN_ELEMENT_THEORY></metadata><data><meanElements><EPOCH>2024-02-18T11:11:48.109056</EPOCH><MEAN_MOTION>14.41843572</MEAN_MOTION><ECCENTRICITY>.0006452</ECCENTRICITY><INCLINATION>45.0129</INCLINATION><RA_OF_ASC_NODE>169.4892</RA_OF_ASC_NODE><ARG_OF_PERICENTER>278.7647</ARG_OF_PERICENTER><MEAN_ANOMALY>81.2472</MEAN_ANOMALY></meanElements><tleParameters><EPHEMERIS_TYPE>0</EPHEMERIS_TYPE><CLASSIFICATION_TYPE>U</CLASSIFICATION_TYPE><NORAD_CAT_ID>25114</NORAD_CAT_ID><ELEMENT_SET_NO>999</ELEMENT_SET_NO><REV_AT_EPOCH>37146</REV_AT_EPOCH><BSTAR>.11152E-2</BSTAR><MEAN_MOTION_DOT>.354E-4</MEAN_MOTION_DOT><MEAN_MOTION_DDOT>0</MEAN_MOTION_DDOT></tleParameters></data></segment></body></omm>
<omm id="CCSDS_OMM_VERS" version="2.0">
<header><CREATION_DATE/><ORIGINATOR/></header><body><segment><metadata><OBJECT_NAME>ORBCOMM FM12 [-]</OBJECT_NAME><OBJECT_ID>1997-084D</OBJECT_ID><CENTER_NAME>EARTH</CENTER_NAME><REF_FRAME>TEME</REF_FRAME><TIME_SYSTEM>UTC</TIME_SYSTEM><MEAN_ELEMENT_THEORY>SGP4</MEAN_ELEMENT_THEORY></metadata><data><meanElements><EPOCH>2024-02-18T10:11:14.446464</EPOCH><MEAN_MOTION>14.41818233</MEAN_MOTION><ECCENTRICITY>.0005575</ECCENTRICITY><INCLINATION>45.0138</INCLINATION><RA_OF_ASC_NODE>169.3599</RA_OF_ASC_NODE><ARG_OF_PERICENTER>276.8513</ARG_OF_PERICENTER><MEAN_ANOMALY>83.1702</MEAN_ANOMALY></meanElements><tleParameters><EPHEMERIS_TYPE>0</EPHEMERIS_TYPE><CLASSIFICATION_TYPE>U</CLASSIFICATION_TYPE><NORAD_CAT_ID>25115</NORAD_CAT_ID><ELEMENT_SET_NO>999</ELEMENT_SET_NO><REV_AT_EPOCH>37146</REV_AT_EPOCH><BSTAR>.10725E-2</BSTAR><MEAN_MOTION_DOT>.3397E-4</MEAN_MOTION_DOT><MEAN_MOTION_DDOT>0</MEAN_MOTION_DDOT></tleParameters></data></segment></body></omm>
<omm id="CCSDS_OMM_VERS" version="2.0">
<header><CREATION_DATE/><ORIGINATOR/></header><body><segment><metadata><OBJECT_NAME>ORBCOMM FM09 [-]</OBJECT_NAME><OBJECT_ID>1997-084E</OBJECT_ID><CENTER_NAME>EARTH</CENTER_NAME><REF_FRAME>TEME</REF_FRAME><TIME_SYSTEM>UTC</TIME_SYSTEM><MEAN_ELEMENT_THEORY>SGP4</MEAN_ELEMENT_THEORY></metadata><data><meanElements><EPOCH>2024-02-18T10:24:47.361600</EPOCH><MEAN_MOTION>14.41784139</MEAN_MOTION><ECCENTRICITY>.0006951</ECCENTRICITY><INCLINATION>45.0139</INCLINATION><RA_OF_ASC_NODE>169.9783</RA_OF_ASC_NODE><ARG_OF_PERICENTER>266.8700</ARG_OF_PERICENTER><MEAN_ANOMALY>93.1354</MEAN_ANOMALY></meanElements><tleParameters><EPHEMERIS_TYPE>0</EPHEMERIS_TYPE><CLASSIFICATION_TYPE>U</CLASSIFICATION_TYPE><NORAD_CAT_ID>25116</NORAD_CAT_ID><ELEMENT_SET_NO>999</ELEMENT_SET_NO><REV_AT_EPOCH>37146</REV_AT_EPOCH><BSTAR>.10921E-2</BSTAR><MEAN_MOTION_DOT>.346E-4</MEAN_MOTION_DOT><MEAN_MOTION_DDOT>0</MEAN_MOTION_DDOT></tleParameters></data></segment></body></omm>

</ndm>
