ORBCOMM-X [-]           
1 21576U 91050C   24049.42081200  .00000686  00000+0  22073-3 0  9998
2 21576  98.4043 118.5197 0003333 192.9655 167.1449 14.42371135712432
ORBCOMM FM01 [-]        
1 23545U 95017A   24048.79815011  .00009575  00000+0  13160-2 0  9999
2 23545  69.9675 193.1356 0007247 314.8704  45.1855 14.78557322540492
ORBCOMM FM02 [-]        
1 23546U 95017B   24048.87146510  .00008661  00000+0  12033-2 0  9993
2 23546  69.9689 212.2286 0009087 313.2181  46.8207 14.78129256540152
ORBCOMM FM08 [-]        
1 25112U 97084A   24048.62075227  .00003045  00000+0  96189-3 0  9995
2 25112  45.0131 171.7239 0007232 305.1070  54.9102 14.42023945371362
ORBCOMM FM10 [-]        
1 25113U 97084B   24048.62309122  .00003108  00000+0  98221-3 0  9999
2 25113  45.0146 173.5082 0005739 273.2569  86.7624 14.41950883371353
ORBCOMM FM11 [+]        
1 25114U 97084C   24049.46652904  .00003540  00000+0  11152-2 0  9999
2 25114  45.0129 169.4892 0006452 278.7647  81.2472 14.41843572371467
ORBCOMM FM12 [-]        
1 25115U 97084D   24049.42447276  .00003397  00000+0  10725-2 0  9995
2 25115  45.0138 169.3599 0005575 276.8513  83.1702 14.41818233371460
ORBCOMM FM09 [-]        
1 25116U 97084E   24049.43388150  .00003460  00000+0  10921-2 0  9991
2 25116  45.0139 169.9783 0006951 266.8700  93.1354 14.41784139371460
